
# Worst residual: 8.95 km
# MJD 58235.000000 (2018 Apr 27  0:00)
1963-039A = NORAD 00674 = Vela 1A
1 00674U 63039A   18117.49919926  .00000000  00000-0  00000-0 0  4495
2 00674 030.3380 176.4885 4947960 128.8786 062.5207 00.22133738    05

# Worst residual: 10.73 km
# MJD 58236.000000 (2018 Apr 28  0:00)
1963-039A = NORAD 00674 = Vela 1A
1 00674U 63039A   18118.49919926  .00000000  00000-0  00000-0 0  4496
2 00674 030.3501 176.4485 4944983 128.7246 142.6520 00.22185778    07

# Worst residual: 7.55 km
# MJD 58237.000000 (2018 Apr 29  0:00)
1963-039A = NORAD 00674 = Vela 1A
1 00674U 63039A   18119.49919926  .00000000  00000-0  00000-0 0  4497
2 00674 030.3630 176.3929 4948958 128.6334 222.8973 00.22203977    00

# Worst residual: 17.00 km
# MJD 58238.000000 (2018 Apr 30  0:00)
1963-039A = NORAD 00674 = Vela 1A
1 00674U 63039A   18120.49919926  .00000000  00000-0  00000-0 0  4499
2 00674 030.3562 176.3530 4943630 128.6509 302.8318 00.22207207    00

# Worst residual: 24.10 km
# MJD 58239.000000 (2018 May  1  0:00)
1963-039A = NORAD 00674 = Vela 1A
1 00674U 63039A   18121.49919926  .00000000  00000-0  00000-0 0  4490
2 00674 030.3633 176.3090 4930731 128.6112 022.8191 00.22248748    01

# Worst residual: 7.15 km
# MJD 58240.000000 (2018 May  2  0:00)
1963-039A = NORAD 00674 = Vela 1A
1 00674U 63039A   18122.49919926  .00000000  00000-0  00000-0 0  4491
2 00674 030.3742 176.2513 4940617 128.7032 102.5819 00.22192213    05

# Worst residual: 1.31 km
# MJD 58241.000000 (2018 May  3  0:00)
1963-039A = NORAD 00674 = Vela 1A
1 00674U 63039A   18123.49919926  .00000000  00000-0  00000-0 0  4492
2 00674 030.3870 176.1944 4939744 128.7643 182.4117 00.22190487    00

# Worst residual: 1.65 km
# MJD 58242.000000 (2018 May  4  0:00)
1963-039A = NORAD 00674 = Vela 1A
1 00674U 63039A   18124.49919926  .00000000  00000-0  00000-0 0  4493
2 00674 030.3961 176.1493 4939467 128.7958 262.3338 00.22196241    08

# Worst residual: 17.00 km
# MJD 58243.000000 (2018 May  5  0:00)
1963-039A = NORAD 00674 = Vela 1A
1 00674U 63039A   18125.49919926  .00000000  00000-0  00000-0 0  4494
2 00674 030.4335 176.1265 4937700 128.8230 342.2578 00.22200609    01

# Worst residual: 4.80 km
# MJD 58244.000000 (2018 May  6  0:00)
1963-039A = NORAD 00674 = Vela 1A
1 00674U 63039A   18126.49919926  .00000000  00000-0  00000-0 0  4495
2 00674 030.4094 176.1033 4936115 128.8743 062.1310 00.22180367    04

# Worst residual: 1.92 km
# MJD 58245.000000 (2018 May  7  0:00)
1963-039A = NORAD 00674 = Vela 1A
1 00674U 63039A   18127.49919926  .00000000  00000-0  00000-0 0  4496
2 00674 030.4186 176.0429 4931398 128.9019 142.0523 00.22184656    08

# Worst residual: 3.61 km
# MJD 58246.000000 (2018 May  8  0:00)
1963-039A = NORAD 00674 = Vela 1A
1 00674U 63039A   18128.49919926  .00000000  00000-0  00000-0 0  4497
2 00674 030.4185 176.0223 4931663 128.9113 221.9386 00.22193232    03

# Worst residual: 8.49 km
# MJD 58247.000000 (2018 May  9  0:00)
1963-039A = NORAD 00674 = Vela 1A
1 00674U 63039A   18129.49919926  .00000000  00000-0  00000-0 0  4498
2 00674 030.4237 175.9810 4927758 129.0133 301.7310 00.22216596    08

# Worst residual: 17.52 km
# MJD 58248.000000 (2018 May 10  0:00)
1963-039A = NORAD 00674 = Vela 1A
1 00674U 63039A   18130.49919926  .00000000  00000-0  00000-0 0  4490
2 00674 030.4400 175.9604 4932967 129.0234 021.6621 00.22158777    00

# Worst residual: 14.38 km
# MJD 58249.000000 (2018 May 11  0:00)
1963-039A = NORAD 00674 = Vela 1A
1 00674U 63039A   18131.49919926  .00000000  00000-0  00000-0 0  4491
2 00674 030.4496 175.9157 4922620 129.0803 101.5407 00.22164593    08

# Worst residual: 5.63 km
# MJD 58250.000000 (2018 May 12  0:00)
1963-039A = NORAD 00674 = Vela 1A
1 00674U 63039A   18132.49919926  .00000000  00000-0  00000-0 0  4492
2 00674 030.4579 175.8821 4916935 128.9785 181.6854 00.22181948    04

# Worst residual: 6.51 km
# MJD 58251.000000 (2018 May 13  0:00)
1963-039A = NORAD 00674 = Vela 1A
1 00674U 63039A   18133.49919926  .00000000  00000-0  00000-0 0  4493
2 00674 030.4626 175.8429 4913898 128.9964 261.5710 00.22184422    04

# Worst residual: 24.75 km
# MJD 58252.000000 (2018 May 14  0:00)
1963-039A = NORAD 00674 = Vela 1A
1 00674U 63039A   18134.49919926  .00000000  00000-0  00000-0 0  4494
2 00674 030.4748 175.8017 4896496 129.1135 341.2802 00.22255757    07

# Worst residual: 22.64 km
# MJD 58253.000000 (2018 May 15  0:00)
1963-039A = NORAD 00674 = Vela 1A
1 00674U 63039A   18135.49919926  .00000000  00000-0  00000-0 0  4495
2 00674 030.4823 175.7424 4902460 129.0135 061.3377 00.22228809    05

# Worst residual: 2.47 km
# MJD 58254.000000 (2018 May 16  0:00)
1963-039A = NORAD 00674 = Vela 1A
1 00674U 63039A   18136.49919926  .00000000  00000-0  00000-0 0  4496
2 00674 030.4949 175.6226 4906747 129.1501 141.1589 00.22210368    06

# Worst residual: 4.25 km
# MJD 58255.000000 (2018 May 17  0:00)
1963-039A = NORAD 00674 = Vela 1A
1 00674U 63039A   18137.49919926  .00000000  00000-0  00000-0 0  4497
2 00674 030.5030 175.5773 4904198 129.1303 221.2539 00.22211521    09

# Worst residual: 3.46 km
# MJD 58256.000000 (2018 May 18  0:00)
1963-039A = NORAD 00674 = Vela 1A
1 00674U 63039A   18138.49919926  .00000000  00000-0  00000-0 0  4498
2 00674 030.5027 175.5397 4902515 129.1317 301.2795 00.22208643    07

# Worst residual: 24.35 km
# MJD 58257.000000 (2018 May 19  0:00)
1963-039A = NORAD 00674 = Vela 1A
1 00674U 63039A   18139.49919926  .00000000  00000-0  00000-0 0  4499
2 00674 030.5115 175.5808 4896991 129.0170 021.2571 00.22210480    01

# Worst residual: 2.69 km
# MJD 58258.000000 (2018 May 20  0:00)
1963-039A = NORAD 00674 = Vela 1A
1 00674U 63039A   18140.49919926  .00000000  00000-0  00000-0 0  4491
2 00674 030.5000 175.4898 4895539 129.0836 101.1840 00.22201601    00

# Worst residual: 7.84 km
# MJD 58259.000000 (2018 May 21  0:00)
1963-039A = NORAD 00674 = Vela 1A
1 00674U 63039A   18141.49919926  .00000000  00000-0  00000-0 0  4492
2 00674 030.5236 175.3910 4884654 129.1603 181.1488 00.22187496    05

# Worst residual: 18.18 km
# MJD 58260.000000 (2018 May 22  0:00)
1963-039A = NORAD 00674 = Vela 1A
1 00674U 63039A   18142.49919926  .00000000  00000-0  00000-0 0  4493
2 00674 030.6062 175.2468 4868483 129.3159 260.8148 00.22173549    02

# Worst residual: 9.81 km
# MJD 58261.000000 (2018 May 23  0:00)
1963-039A = NORAD 00674 = Vela 1A
1 00674U 63039A   18143.49919926  .00000000  00000-0  00000-0 0  4494
2 00674 030.6617 175.2116 4854289 129.4454 340.4810 00.22231354    06

# Worst residual: 6.41 km
# MJD 58262.000000 (2018 May 24  0:00)
1963-039A = NORAD 00674 = Vela 1A
1 00674U 63039A   18144.49919926  .00000000  00000-0  00000-0 0  4495
2 00674 030.6709 175.1752 4861905 129.5283 060.2842 00.22147922    06

# Worst residual: 9.54 km
# MJD 58263.000000 (2018 May 25  0:00)
1963-039A = NORAD 00674 = Vela 1A
1 00674U 63039A   18145.49919926  .00000000  00000-0  00000-0 0  4496
2 00674 030.6821 175.1301 4859346 129.4178 140.3545 00.22187551    01
